STARLINK-35234          
1 65601U 25207K   26132.18764435  .00000171  00000+0  15967-4 0  9996
2 65601  97.5051 201.0644 0002206 138.1962 221.9433 15.05644562 37815
STARLINK-35255          
1 65602U 25207L   26132.10456837 -.00005715  00000+0 -39228-3 0  9999
2 65602  97.5061 201.0227 0001941 155.1145 205.0176 15.05646334 37806
STARLINK-35250          
1 65603U 25207M   26132.08795569  .00004418  00000+0  31009-3 0  9991
2 65603  97.5061 201.0469 0001075 160.0211 200.1059 15.05654739 37806
STARLINK-35251          
1 65604U 25207N   26132.11012505  .00005945  00000+0  41579-3 0  9997
2 65604  97.5060 201.0148 0002493 139.5573 220.5839 15.05651680 37801
STARLINK-35171          
1 65605U 25207P   26132.09626325  .00003123  00000+0  22041-3 0  9995
2 65605  97.5049 201.0352 0001396 155.2544 204.8750 15.05656989 37646
STARLINK-35195          
1 65606U 25207Q   26132.20425105  .00022310  00000+0  15433-2 0  9997
2 65606  97.5088 201.2026 0000716 135.9846 224.1438 15.05703694 37829
STARLINK-35156          
1 65607U 25207R   26132.14334224  .00004243  00000+0  29795-3 0  9994
2 65607  97.5055 201.1252 0002092 169.7236 190.4034 15.05659158 37812
STARLINK-35185          
1 65608U 25207S   26132.10179923  .00006536  00000+0  45645-3 0  9993
2 65608  97.5088 201.0298 0002637 147.9677 212.1711 15.05668250 37806
STARLINK-35053          
1 65609U 25207T   26132.15164749  .00004155  00000+0  29188-3 0  9998
2 65609  97.5031 201.1141 0000966 152.9490 207.1788 15.05651307 37651
STARLINK-35178          
1 65610U 25207U   26132.11287714  .00004296  00000+0  30166-3 0  9998
2 65610  97.5035 201.0101 0001141 153.7261 206.4024 15.05654024 37804
STARLINK-35186          
1 65611U 25207V   26132.20149507  .00001229  00000+0  89320-4 0  9996
2 65611  97.5034 201.0498 0001938 132.9427 227.1962 15.05645318 37818
STARLINK-35154          
1 65612U 25207W   26132.14611249  .00001371  00000+0  99138-4 0  9993
2 65612  97.5043 201.1248 0001577 156.9393 203.1905 15.05653441 37659
STARLINK-35162          
1 65613U 25207X   26132.09349647  .00002883  00000+0  20379-3 0  9997
2 65613  97.5076 201.0415 0001567 156.3303 203.7997 15.05654897 37805
STARLINK-35206          
1 65614U 25207Y   26132.18487474 -.00002120  00000+0 -14290-3 0  9990
2 65614  97.5037 201.0678 0001139 154.5682 205.5601 15.05640554 37705
STARLINK-35174          
1 65615U 25207Z   26132.19318042  .00004161  00000+0  29229-3 0  9999
2 65615  97.5074 201.0584 0000463 201.7700 158.3507 15.05656039 37815
HJS-7A                  
1 65617U 25209A   26132.24354531 -.00000059  00000+0  12445-3 0  9997
2 65617  49.9971 130.9849 0001043 290.2421  69.8344 13.41459951 32841
HJS-7B                  
1 65618U 25209B   26132.31492007 -.00000070  00000+0  10498-3 0  9996
2 65618  49.9971 130.7004 0001704 341.9255  18.1562 13.41460393 32825
HJS-7C                  
1 65619U 25209C   26132.31216113 -.00000061  00000+0  11953-3 0  9996
2 65619  49.9974 130.0417 0002085 354.7847   5.3008 13.41457424 32826
HJS-7D                  
1 65620U 25209D   26132.30844084 -.00000046  00000+0  14682-3 0  9996
2 65620  49.9979 129.9995 0005554 282.9737  77.0520 13.41466722 32821
STARLINK-35247          
1 65622U 25210A   26131.94245588  .00004970  00000+0  17983-3 0  9999
2 65622  53.1608  13.4005 0001316  92.3735 267.7416 15.30199195 37410
STARLINK-35239          
1 65623U 25210B   26132.05619624  .00014777  00000+0  44769-3 0  9997
2 65623  53.1612  11.9811 0001194  84.1237 275.9902 15.34395210 37448
STARLINK-35151          
1 65624U 25210C   26132.07780329  .00028031  00000+0  65109-3 0  9990
2 65624  53.1607  11.4008 0001065  81.5652 278.5475 15.42167249 37379
STARLINK-35153          
1 65625U 25210D   26132.04988140  .00009964  00000+0  30559-3 0  9994
2 65625  53.1623  11.9373 0001194 101.4123 258.7014 15.34406735 37361
STARLINK-35225          
1 65626U 25210E   26132.07302574  .00025148  00000+0  75301-3 0  9995
2 65626  53.1611  12.0868 0001217  86.2516 273.8625 15.34396632 37441
STARLINK-35217          
1 65627U 25210F   26131.95617345  .00008797  00000+0  30878-3 0  9998
2 65627  53.1593  13.4821 0001149  87.4059 272.7073 15.30201603 37415
STARLINK-35128          
1 65628U 25210G   26132.08144017  .00018084  00000+0  54500-3 0  9993
2 65628  53.1603  12.1396 0001127  87.8580 272.2551 15.34402793 37446
STARLINK-35135          
1 65629U 25210H   26132.03944918  .00006102  00000+0  19159-3 0  9996
2 65629  53.1609  12.5854 0000571  46.8893 313.2158 15.34397344 37433
STARLINK-34877          
1 65630U 25210J   26132.28526735  .00018698  00000+0  56315-3 0  9996
2 65630  53.1603  11.2764 0000884  73.5729 286.5371 15.34399631 37471
STARLINK-35104          
1 65631U 25210K   26132.06250656  .00010840  00000+0  33153-3 0  9995
2 65631  53.1610  12.0183 0001050  85.8322 274.2800 15.34397312 37436
STARLINK-35117          
1 65632U 25210L   26132.08996795  .00006749  00000+0  23979-3 0  9997
2 65632  53.1590  12.8942 0001098  81.3191 278.7934 15.30201006 37439
