OBJECT_NAME,OBJECT_ID,EPOCH,MEAN_MOTION,ECCENTRICITY,INCLINATION,RA_OF_ASC_NODE,ARG_OF_PERICENTER,MEAN_ANOMALY,EPHEMERIS_TYPE,CLASSIFICATION_TYPE,NORAD_CAT_ID,ELEMENT_SET_NO,REV_AT_EPOCH,BSTAR,MEAN_MOTION_DOT,MEAN_MOTION_DDOT
STARLINK-35234,2025-207K,2026-05-12T04:30:12.471840,15.05644562,.00022066,97.5051,201.0644,138.1962,221.9433,0,U,65601,999,3781,.15967406E-4,.171E-5,0
STARLINK-35255,2025-207L,2026-05-12T02:30:34.707168,15.05646334,.00019415,97.5061,201.0227,155.1145,205.0176,0,U,65602,999,3780,-.39227829E-3,-.5715E-4,0
STARLINK-35250,2025-207M,2026-05-12T02:06:39.371616,15.05654739,.00010754,97.5061,201.0469,160.0211,200.1059,0,U,65603,999,3780,.31009317E-3,.4418E-4,0
STARLINK-35251,2025-207N,2026-05-12T02:38:34.804320,15.05651680,.00024932,97.5060,201.0148,139.5573,220.5839,0,U,65604,999,3780,.41579196E-3,.5945E-4,0
STARLINK-35171,2025-207P,2026-05-12T02:18:37.144800,15.05656989,.00013963,97.5049,201.0352,155.2544,204.8750,0,U,65605,999,3764,.22040756E-3,.3123E-4,0
STARLINK-35195,2025-207Q,2026-05-12T04:54:07.290720,15.05703694,.00007161,97.5088,201.2026,135.9846,224.1438,0,U,65606,999,3782,.15433176E-2,.2231E-3,0
STARLINK-35156,2025-207R,2026-05-12T03:26:24.769536,15.05659158,.00020926,97.5055,201.1252,169.7236,190.4034,0,U,65607,999,3781,.29795242E-3,.4243E-4,0
STARLINK-35185,2025-207S,2026-05-12T02:26:35.453472,15.05668250,.00026378,97.5088,201.0298,147.9677,212.1711,0,U,65608,999,3780,.45645249E-3,.6536E-4,0
STARLINK-35053,2025-207T,2026-05-12T03:38:22.343136,15.05651307,.00009666,97.5031,201.1141,152.9490,207.1788,0,U,65609,999,3765,.29188249E-3,.4155E-4,0
STARLINK-35178,2025-207U,2026-05-12T02:42:32.584896,15.05654024,.00011417,97.5035,201.0101,153.7261,206.4024,0,U,65610,999,3780,.30165512E-3,.4296E-4,0
STARLINK-35186,2025-207V,2026-05-12T04:50:09.174048,15.05645318,.00019381,97.5034,201.0498,132.9427,227.1962,0,U,65611,999,3781,.89319821E-4,.1229E-4,0
STARLINK-35154,2025-207W,2026-05-12T03:30:24.119136,15.05653441,.00015773,97.5043,201.1248,156.9393,203.1905,0,U,65612,999,3765,.99138181E-4,.1371E-4,0
STARLINK-35162,2025-207X,2026-05-12T02:14:38.095008,15.05654897,.00015675,97.5076,201.0415,156.3303,203.7997,0,U,65613,999,3780,.20379259E-3,.2883E-4,0
STARLINK-35206,2025-207Y,2026-05-12T04:26:13.177536,15.05640554,.00011391,97.5037,201.0678,154.5682,205.5601,0,U,65614,999,3770,-.14289643E-3,-.212E-4,0
STARLINK-35174,2025-207Z,2026-05-12T04:38:10.788288,15.05656039,.00004636,97.5074,201.0584,201.7700,158.3507,0,U,65615,999,3781,.29228993E-3,.4161E-4,0
HJS-7A,2025-209A,2026-05-12T05:50:42.314784,13.41459951,.0001043,49.9971,130.9849,290.2421,69.8344,0,U,65617,999,3284,.12445236E-3,-.59E-6,0
HJS-7B,2025-209B,2026-05-12T07:33:29.094048,13.41460393,.00017045,49.9971,130.7004,341.9255,18.1562,0,U,65618,999,3282,.1049784E-3,-.7E-6,0
HJS-7C,2025-209C,2026-05-12T07:29:30.721632,13.41457424,.00020856,49.9974,130.0417,354.7847,5.3008,0,U,65619,999,3282,.11952917E-3,-.61E-6,0
HJS-7D,2025-209D,2026-05-12T07:24:09.288576,13.41466722,.00055546,49.9979,129.9995,282.9737,77.0520,0,U,65620,999,3282,.14681701E-3,-.46E-6,0
STARLINK-35247,2025-210A,2026-05-11T22:37:08.188032,15.30199195,.0001316,53.1608,13.4005,92.3735,267.7416,0,U,65622,999,3741,.17983E-3,.497E-4,0
STARLINK-35239,2025-210B,2026-05-12T01:20:55.355136,15.34395210,.00011947,53.1612,11.9811,84.1237,275.9902,0,U,65623,999,3744,.44769102E-3,.14777E-3,0
STARLINK-35151,2025-210C,2026-05-12T01:52:02.204256,15.42167249,.00010652,53.1607,11.4008,81.5652,278.5475,0,U,65624,999,3737,.65108657E-3,.28031E-3,0
STARLINK-35153,2025-210D,2026-05-12T01:11:49.752960,15.34406735,.00011943,53.1623,11.9373,101.4123,258.7014,0,U,65625,999,3736,.30558568E-3,.9964E-4,0
STARLINK-35225,2025-210E,2026-05-12T01:45:09.423936,15.34396632,.00012179,53.1611,12.0868,86.2516,273.8625,0,U,65626,999,3744,.75301396E-3,.25148E-3,0
STARLINK-35217,2025-210F,2026-05-11T22:56:53.386080,15.30201603,.0001149,53.1593,13.4821,87.4059,272.7073,0,U,65627,999,3741,.30878E-3,.8797E-4,0
STARLINK-35128,2025-210G,2026-05-12T01:57:16.430688,15.34402793,.00011279,53.1603,12.1396,87.8580,272.2551,0,U,65628,999,3744,.5450037E-3,.18084E-3,0
STARLINK-35135,2025-210H,2026-05-12T00:56:48.409152,15.34397344,.00005713,53.1609,12.5854,46.8893,313.2158,0,U,65629,999,3743,.19159143E-3,.6102E-4,0
STARLINK-34877,2025-210J,2026-05-12T06:50:47.099040,15.34399631,.00008849,53.1603,11.2764,73.5729,286.5371,0,U,65630,999,3747,.56315168E-3,.18698E-3,0
STARLINK-35104,2025-210K,2026-05-12T01:30:00.566784,15.34397312,.00010507,53.1610,12.0183,85.8322,274.2800,0,U,65631,999,3743,.33153187E-3,.1084E-3,0
STARLINK-35117,2025-210L,2026-05-12T02:09:33.230880,15.30201006,.00010985,53.1590,12.8942,81.3191,278.7934,0,U,65632,999,3743,.2397902E-3,.6749E-4,0
